{
  "type": "FeatureCollection",
  "features": [
    {
      "type": "Feature",
      "properties": {
        "norad_id": 30596,
        "name": "FENGYUN 1C DEB",
        "group": "fengyun-1c-debris",
        "lat": -24.474131697579725,
        "lon": 172.9459810873763,
        "alt_km": 658.6532582294567,
        "timestamp": "2025-12-25T09:48:52.567640+00:00",
        "meta_object_name": "FENGYUN 1C DEB",
        "meta_object_id": "1999-025AMB",
        "meta_epoch": "2025-12-24T11:48:27.877248",
        "meta_mean_motion": 14.34387711,
        "meta_eccentricity": 0.02471859,
        "meta_inclination": 98.4136,
        "meta_ra_of_asc_node": 355.9152,
        "meta_arg_of_pericenter": 253.9059,
        "meta_mean_anomaly": 260.5415,
        "meta_ephemeris_type": 0,
        "meta_classification_type": "U",
        "meta_norad_cat_id": 30596,
        "meta_element_set_no": 999,
        "meta_rev_at_epoch": 98729,
        "meta_bstar": 0.00024326475,
        "meta_mean_motion_dot": 9.11e-06,
        "meta_mean_motion_ddot": 0,
        "tle_line1": "1 30596U 99025AMB 25358.49198932  .00000911  00000+0  24326-3 0  9996",
        "tle_line2": "2 30596  98.4136 355.9152 0247185 253.9059 260.5415 14.34387711987293"
      },
      "geometry": {
        "type": "Point",
        "coordinates": [
          172.9459810873763,
          -24.474131697579725
        ]
      }
    },
    {
      "type": "Feature",
      "properties": {
        "norad_id": 30597,
        "name": "FENGYUN 1C DEB",
        "group": "fengyun-1c-debris",
        "lat": -53.352073519001166,
        "lon": 105.37178744747166,
        "alt_km": 605.3238073703451,
        "timestamp": "2025-12-25T09:48:52.567650+00:00",
        "meta_object_name": "FENGYUN 1C DEB",
        "meta_object_id": "1999-025AMC",
        "meta_epoch": "2025-12-24T07:02:47.375232",
        "meta_mean_motion": 14.93450835,
        "meta_eccentricity": 0.00466134,
        "meta_inclination": 98.9402,
        "meta_ra_of_asc_node": 296.3208,
        "meta_arg_of_pericenter": 126.7159,
        "meta_mean_anomaly": 233.8353,
        "meta_ephemeris_type": 0,
        "meta_classification_type": "U",
        "meta_norad_cat_id": 30597,
        "meta_element_set_no": 999,
        "meta_rev_at_epoch": 98709,
        "meta_bstar": 0.0051085907,
        "meta_mean_motion_dot": 0.0005519,
        "meta_mean_motion_ddot": 0,
        "tle_line1": "1 30597U 99025AMC 25358.29360388  .00055190  00000+0  51086-2 0  9992",
        "tle_line2": "2 30597  98.9402 296.3208 0046613 126.7159 233.8353 14.93450835987091"
      },
      "geometry": {
        "type": "Point",
        "coordinates": [
          105.37178744747166,
          -53.352073519001166
        ]
      }
    },
    {
      "type": "Feature",
      "properties": {
        "norad_id": 30599,
        "name": "FENGYUN 1C DEB",
        "group": "fengyun-1c-debris",
        "lat": -38.00809482075161,
        "lon": -176.09851318427516,
        "alt_km": 824.6578835448454,
        "timestamp": "2025-12-25T09:48:52.567660+00:00",
        "meta_object_name": "FENGYUN 1C DEB",
        "meta_object_id": "1999-025AME",
        "meta_epoch": "2025-12-22T06:20:23.996832",
        "meta_mean_motion": 14.1973512,
        "meta_eccentricity": 0.03018402,
        "meta_inclination": 98.6022,
        "meta_ra_of_asc_node": 7.6345,
        "meta_arg_of_pericenter": 317.1611,
        "meta_mean_anomaly": 40.6398,
        "meta_ephemeris_type": 0,
        "meta_classification_type": "U",
        "meta_norad_cat_id": 30599,
        "meta_element_set_no": 999,
        "meta_rev_at_epoch": 97302,
        "meta_bstar": 0.00072444523,
        "meta_mean_motion_dot": 2.37e-05,
        "meta_mean_motion_ddot": 0,
        "tle_line1": "1 30599U 99025AME 25356.26416663  .00002370  00000+0  72445-3 0  9992",
        "tle_line2": "2 30599  98.6022   7.6345 0301840 317.1611  40.6398 14.19735120973020"
      },
      "geometry": {
        "type": "Point",
        "coordinates": [
          -176.09851318427516,
          -38.00809482075161
        ]
      }
    },
    {
      "type": "Feature",
      "properties": {
        "norad_id": 30600,
        "name": "FENGYUN 1C DEB",
        "group": "fengyun-1c-debris",
        "lat": 49.649501225420124,
        "lon": 133.28584087692053,
        "alt_km": 820.3291706509699,
        "timestamp": "2025-12-25T09:48:52.567670+00:00",
        "meta_object_name": "FENGYUN 1C DEB",
        "meta_object_id": "1999-025AMF",
        "meta_epoch": "2025-12-23T07:42:04.985856",
        "meta_mean_motion": 14.07647201,
        "meta_eccentricity": 0.03263971,
        "meta_inclination": 98.389,
        "meta_ra_of_asc_node": 301.3395,
        "meta_arg_of_pericenter": 217.0052,
        "meta_mean_anomaly": 140.8204,
        "meta_ephemeris_type": 0,
        "meta_classification_type": "U",
        "meta_norad_cat_id": 30600,
        "meta_element_set_no": 999,
        "meta_rev_at_epoch": 94581,
        "meta_bstar": 0.0024293418,
        "meta_mean_motion_dot": 6.648e-05,
        "meta_mean_motion_ddot": 0,
        "tle_line1": "1 30600U 99025AMF 25357.32089104  .00006648  00000+0  24293-2 0  9998",
        "tle_line2": "2 30600  98.3890 301.3395 0326397 217.0052 140.8204 14.07647201945817"
      },
      "geometry": {
        "type": "Point",
        "coordinates": [
          133.28584087692053,
          49.649501225420124
        ]
      }
    },
    {
      "type": "Feature",
      "properties": {
        "norad_id": 30602,
        "name": "FENGYUN 1C DEB",
        "group": "fengyun-1c-debris",
        "lat": 34.707809984406936,
        "lon": -91.19180552725338,
        "alt_km": 579.9752213111014,
        "timestamp": "2025-12-25T09:48:52.567680+00:00",
        "meta_object_name": "FENGYUN 1C DEB",
        "meta_object_id": "1999-025AMH",
        "meta_epoch": "2025-12-24T17:42:12.057984",
        "meta_mean_motion": 14.92947633,
        "meta_eccentricity": 0.00140869,
        "meta_inclination": 99.0331,
        "meta_ra_of_asc_node": 274.3645,
        "meta_arg_of_pericenter": 88.6277,
        "meta_mean_anomaly": 300.8333,
        "meta_ephemeris_type": 0,
        "meta_classification_type": "U",
        "meta_norad_cat_id": 30602,
        "meta_element_set_no": 999,
        "meta_rev_at_epoch": 97984,
        "meta_bstar": 0.007715388,
        "meta_mean_motion_dot": 0.00081082,
        "meta_mean_motion_ddot": 0,
        "tle_line1": "1 30602U 99025AMH 25358.73763956  .00081082  00000+0  77154-2 0  9999",
        "tle_line2": "2 30602  99.0331 274.3645 0014086  88.6277 300.8333 14.92947633979841"
      },
      "geometry": {
        "type": "Point",
        "coordinates": [
          -91.19180552725338,
          34.707809984406936
        ]
      }
    },
    {
      "type": "Feature",
      "properties": {
        "norad_id": 30603,
        "name": "FENGYUN 1C DEB",
        "group": "fengyun-1c-debris",
        "lat": 80.40419622002405,
        "lon": -97.96640896577811,
        "alt_km": 907.2976132174754,
        "timestamp": "2025-12-25T09:48:52.567690+00:00",
        "meta_object_name": "FENGYUN 1C DEB",
        "meta_object_id": "1999-025AMJ",
        "meta_epoch": "2025-12-24T00:39:43.625664",
        "meta_mean_motion": 13.84156155,
        "meta_eccentricity": 0.01835139,
        "meta_inclination": 98.4082,
        "meta_ra_of_asc_node": 19.7685,
        "meta_arg_of_pericenter": 174.5808,
        "meta_mean_anomaly": 242.6183,
        "meta_ephemeris_type": 0,
        "meta_classification_type": "U",
        "meta_norad_cat_id": 30603,
        "meta_element_set_no": 999,
        "meta_rev_at_epoch": 95032,
        "meta_bstar": 0.0011941856,
        "meta_mean_motion_dot": 1.479e-05,
        "meta_mean_motion_ddot": 0,
        "tle_line1": "1 30603U 99025AMJ 25358.02758826  .00001479  00000+0  11942-2 0  9997",
        "tle_line2": "2 30603  98.4082  19.7685 0183513 174.5808 242.6183 13.84156155950329"
      },
      "geometry": {
        "type": "Point",
        "coordinates": [
          -97.96640896577811,
          80.40419622002405
        ]
      }
    },
    {
      "type": "Feature",
      "properties": {
        "norad_id": 30604,
        "name": "FENGYUN 1C DEB",
        "group": "fengyun-1c-debris",
        "lat": 57.25198730573279,
        "lon": -133.0267283199443,
        "alt_km": 939.5598633747986,
        "timestamp": "2025-12-25T09:48:52.567700+00:00",
        "meta_object_name": "FENGYUN 1C DEB",
        "meta_object_id": "1999-025AMK",
        "meta_epoch": "2025-12-24T20:37:25.641984",
        "meta_mean_motion": 14.23630091,
        "meta_eccentricity": 0.02089843,
        "meta_inclination": 98.4011,
        "meta_ra_of_asc_node": 33.1644,
        "meta_arg_of_pericenter": 331.3398,
        "meta_mean_anomaly": 214.0125,
        "meta_ephemeris_type": 0,
        "meta_classification_type": "U",
        "meta_norad_cat_id": 30604,
        "meta_element_set_no": 999,
        "meta_rev_at_epoch": 98011,
        "meta_bstar": 0.0002835181,
        "meta_mean_motion_dot": 7.63e-06,
        "meta_mean_motion_ddot": 0,
        "tle_line1": "1 30604U 99025AMK 25358.85932456  .00000763  00000+0  28352-3 0  9991",
        "tle_line2": "2 30604  98.4011  33.1644 0208984 331.3398 214.0125 14.23630091980113"
      },
      "geometry": {
        "type": "Point",
        "coordinates": [
          -133.0267283199443,
          57.25198730573279
        ]
      }
    }
  ]
}